{
  "type": "FeatureCollection",
  "features": [
    {
      "type": "Feature",
      "properties": {
        "sentido": "Ida",
        "nota": "Puntos de paso trazados de memoria el 4 de octubre de 2026. Separación promedio 131 m, sin huecos mayores a 400 m. `pnpm rutas` los pega a las calles.",
        "revisar": [
          "19.10336, -98.16137 — giro de 143°. Zigzag en la colonia: ¿es real?",
          "19.10159, -98.16071 — giro de 111°, mismo zigzag."
        ]
      },
      "geometry": {
        "type": "LineString",
        "coordinates": [
          [
            -98.166951,
            19.10541
          ],
          [
            -98.166067,
            19.104823
          ],
          [
            -98.165362,
            19.104299
          ],
          [
            -98.164842,
            19.103919
          ],
          [
            -98.164047,
            19.103515
          ],
          [
            -98.162902,
            19.103211
          ],
          [
            -98.162271,
            19.103163
          ],
          [
            -98.161373,
            19.103362
          ],
          [
            -98.162267,
            19.102362
          ],
          [
            -98.161607,
            19.101944
          ],
          [
            -98.160714,
            19.101586
          ],
          [
            -98.162535,
            19.099813
          ],
          [
            -98.164171,
            19.098175
          ],
          [
            -98.165356,
            19.09704
          ],
          [
            -98.165155,
            19.096295
          ],
          [
            -98.166769,
            19.095063
          ],
          [
            -98.168734,
            19.093533
          ],
          [
            -98.169887,
            19.092607
          ],
          [
            -98.170912,
            19.091591
          ],
          [
            -98.170793,
            19.091387
          ],
          [
            -98.168759,
            19.089837
          ],
          [
            -98.166541,
            19.088121
          ],
          [
            -98.166033,
            19.087738
          ],
          [
            -98.164448,
            19.088688
          ],
          [
            -98.163737,
            19.089137
          ],
          [
            -98.162947,
            19.089734
          ],
          [
            -98.162793,
            19.0897
          ],
          [
            -98.163136,
            19.088002
          ],
          [
            -98.163316,
            19.086804
          ],
          [
            -98.163692,
            19.085
          ],
          [
            -98.163951,
            19.08386
          ],
          [
            -98.164172,
            19.083119
          ],
          [
            -98.164644,
            19.082435
          ],
          [
            -98.165581,
            19.081001
          ],
          [
            -98.166085,
            19.080224
          ],
          [
            -98.167368,
            19.079337
          ],
          [
            -98.168682,
            19.077902
          ],
          [
            -98.169842,
            19.076595
          ],
          [
            -98.170046,
            19.076221
          ],
          [
            -98.170338,
            19.075266
          ],
          [
            -98.171133,
            19.074355
          ],
          [
            -98.173196,
            19.072063
          ],
          [
            -98.17524,
            19.069712
          ],
          [
            -98.176414,
            19.068417
          ],
          [
            -98.177832,
            19.066843
          ],
          [
            -98.178646,
            19.065992
          ],
          [
            -98.178884,
            19.065719
          ],
          [
            -98.179952,
            19.065776
          ],
          [
            -98.181209,
            19.065862
          ],
          [
            -98.182641,
            19.065915
          ],
          [
            -98.183948,
            19.06599
          ],
          [
            -98.185632,
            19.066096
          ],
          [
            -98.185899,
            19.065166
          ],
          [
            -98.186146,
            19.064245
          ],
          [
            -98.18639,
            19.063347
          ],
          [
            -98.186716,
            19.062249
          ],
          [
            -98.187449,
            19.06257
          ],
          [
            -98.188271,
            19.061084
          ],
          [
            -98.188784,
            19.061344
          ],
          [
            -98.190174,
            19.058998
          ],
          [
            -98.191255,
            19.057175
          ],
          [
            -98.192403,
            19.057471
          ],
          [
            -98.192613,
            19.057364
          ],
          [
            -98.192823,
            19.057323
          ],
          [
            -98.19297,
            19.057255
          ],
          [
            -98.193132,
            19.057003
          ],
          [
            -98.19334,
            19.056649
          ],
          [
            -98.193668,
            19.056087
          ],
          [
            -98.193865,
            19.055772
          ],
          [
            -98.194478,
            19.054736
          ],
          [
            -98.194757,
            19.054274
          ],
          [
            -98.19534,
            19.05329
          ],
          [
            -98.195899,
            19.052359
          ],
          [
            -98.195917,
            19.052332
          ],
          [
            -98.195917,
            19.052332
          ]
        ]
      }
    }
  ]
}
